{
  "type": "FeatureCollection",
  "features": [
    {
      "type": "Feature",
      "properties": {
        "distance_m": 286.616,
        "distance_km": 0.286616,
        "hops": 77,
        "runtime_ms": 35.5733,
        "start_osm": 21442148,
        "end_osm": 9395588637
      },
      "geometry": {
        "type": "LineString",
        "coordinates": [
          [-157.823, 21.2712],
          [-157.823, 21.271],
          [-157.822, 21.2709],
          [-157.822, 21.2705],
          [-157.822, 21.2703],
          [-157.821, 21.2698],
          [-157.821, 21.2697],
          [-157.821, 21.2696],
          [-157.821, 21.2696],
          [-157.82, 21.2695],
          [-157.82, 21.2695],
          [-157.819, 21.2694],
          [-157.819, 21.2694],
          [-157.819, 21.2694],
          [-157.819, 21.2694],
          [-157.818, 21.2693],
          [-157.818, 21.2693],
          [-157.818, 21.2693],
          [-157.818, 21.2693],
          [-157.817, 21.2693],
          [-157.817, 21.2692],
          [-157.816, 21.2691],
          [-157.816, 21.2691],
          [-157.816, 21.2692],
          [-157.816, 21.2702],
          [-157.816, 21.2705],
          [-157.816, 21.2707],
          [-157.817, 21.2728],
          [-157.817, 21.2733],
          [-157.817, 21.2733],
          [-157.817, 21.2734],
          [-157.817, 21.2736],
          [-157.816, 21.2737],
          [-157.816, 21.2739],
          [-157.816, 21.274],
          [-157.816, 21.2741],
          [-157.816, 21.2741],
          [-157.816, 21.2743],
          [-157.816, 21.2744],
          [-157.816, 21.2745],
          [-157.816, 21.2746],
          [-157.816, 21.2749],
          [-157.815, 21.2759],
          [-157.815, 21.2761],
          [-157.815, 21.2763],
          [-157.815, 21.2765],
          [-157.815, 21.2766],
          [-157.814, 21.2771],
          [-157.814, 21.2775],
          [-157.814, 21.2778],
          [-157.814, 21.278],
          [-157.814, 21.2781],
          [-157.814, 21.2782],
          [-157.814, 21.2783],
          [-157.814, 21.2784],
          [-157.814, 21.2785],
          [-157.813, 21.2786],
          [-157.812, 21.279],
          [-157.812, 21.279],
          [-157.812, 21.2795],
          [-157.812, 21.2796],
          [-157.812, 21.2796],
          [-157.812, 21.2797],
          [-157.811, 21.2798],
          [-157.813, 21.2815],
          [-157.812, 21.2819],
          [-157.812, 21.2824],
          [-157.811, 21.2828],
          [-157.811, 21.2833],
          [-157.81, 21.2839],
          [-157.81, 21.2843],
          [-157.81, 21.2843],
          [-157.81, 21.2848],
          [-157.81, 21.2851],
          [-157.81, 21.2851],
          [-157.81, 21.2851],
          [-157.81, 21.2851]
        ]
      }
    },
    {
      "type": "Feature",
      "properties": {"kind": "start", "osm": 21442148},
      "geometry": {"type": "Point", "coordinates": [-157.823, 21.2712]}
    },
    {
      "type": "Feature",
      "properties": {"kind": "end", "osm": 9395588637},
      "geometry": {"type": "Point", "coordinates": [-157.81, 21.2851]}
    }
  ]
}
